ADRAS-J                 
1 58992U 24034A   24100.17691869  .00003477  00000+0  33339-3 0  9994
2 58992  98.2068  70.1276 0042813 276.2448  83.3894 14.93167368  7563
